{"type": "FeatureCollection", "features": [ {"type": "Feature", "properties": {"norad_id": 30467, "name": "FENGYUN 1C DEB", "group": "fengyun-1c-debris", "lat": 57.44865625782614, "lon": -142.24433410093596, "alt_km": 785.2437746372634, "timestamp": "2025-12-22T14:45:57.679214+00:00", "meta": {"OBJECT_NAME": "FENGYUN 1C DEB", "OBJECT_ID": "1999-025AGE", "EPOCH": "2025-12-21T01:03:44.844192", "MEAN_MOTION": 14.17301415, "ECCENTRICITY": 0.00652306, "INCLINATION": 98.678, "RA_OF_ASC_NODE": 22.3793, "ARG_OF_PERICENTER": 103.9588, "MEAN_ANOMALY": 286.1021, "EPHEMERIS_TYPE": 0, "CLASSIFICATION_TYPE": "U", "NORAD_CAT_ID": 30467, "ELEMENT_SET_NO": 999, "REV_AT_EPOCH": 97295, "BSTAR": 0.00063859941, "MEAN_MOTION_DOT": 1.275e-05, "MEAN_MOTION_DDOT": 0}, "tle": {"line1": "1 30467U 99025AGE 25355.04426903  .00001275  00000+0  63860-3 0  9993", "line2": "2 30467  98.6780  22.3793 0065230 103.9588 286.1021 14.17301415972955"}}, "geometry": {"type": "Point", "coordinates": [-142.24433410093596, 57.44865625782614]}}, {"type": "Feature", "properties": {"norad_id": 30468, "name": "FENGYUN 1C DEB", "group": "fengyun-1c-debris", "lat": -13.545034802315703, "lon": -103.96500424491705, "alt_km": 878.6765435747011, "timestamp": "2025-12-22T14:45:57.679224+00:00", "meta": {"OBJECT_NAME": "FENGYUN 1C DEB", "OBJECT_ID": "1999-025AGF", "EPOCH": "2025-12-21T16:38:22.669152", "MEAN_MOTION": 14.20758793, "ECCENTRICITY": 0.00714447, "INCLINATION": 98.9218, "RA_OF_ASC_NODE": 77.2734, "ARG_OF_PERICENTER": 13.8906, "MEAN_ANOMALY": 146.9357, "EPHEMERIS_TYPE": 0, "CLASSIFICATION_TYPE": "U", "NORAD_CAT_ID": 30468, "ELEMENT_SET_NO": 999, "REV_AT_EPOCH": 96937, "BSTAR": 0.0011492, "MEAN_MOTION_DOT": 2.499e-05, "MEAN_MOTION_DDOT": 0}, "tle": {"line1": "1 30468U 99025AGF 25355.69331793  .00002499  00000+0  11492-2 0  9999", "line2": "2 30468  98.9218  77.2734 0071444  13.8906 146.9357 14.20758793969372"}}, "geometry": {"type": "Point", "coordinates": [-103.96500424491705, -13.545034802315703]}}, {"type": "Feature", "properties": {"norad_id": 30469, "name": "FENGYUN 1C DEB", "group": "fengyun-1c-debris", "lat": 39.0717699287529, "lon": -160.40232589501386, "alt_km": 925.7304629264418, "timestamp": "2025-12-22T14:45:57.679235+00:00", "meta": {"OBJECT_NAME": "FENGYUN 1C DEB", "OBJECT_ID": "1999-025AGG", "EPOCH": "2025-12-21T09:55:20.155008", "MEAN_MOTION": 13.96533889, "ECCENTRICITY": 0.01586465, "INCLINATION": 98.4787, "RA_OF_ASC_NODE": 205.4451, "ARG_OF_PERICENTER": 145.3624, "MEAN_ANOMALY": 337.2453, "EPHEMERIS_TYPE": 0, "CLASSIFICATION_TYPE": "U", "NORAD_CAT_ID": 30469, "ELEMENT_SET_NO": 999, "REV_AT_EPOCH": 95827, "BSTAR": 0.00074434433, "MEAN_MOTION_DOT": 1.106e-05, "MEAN_MOTION_DDOT": 0}, "tle": {"line1": "1 30469U 99025AGG 25355.41342772  .00001106  00000+0  74434-3 0  9999", "line2": "2 30469  98.4787 205.4451 0158646 145.3624 337.2453 13.96533889958276"}}, "geometry": {"type": "Point", "coordinates": [-160.40232589501386, 39.0717699287529]}}, {"type": "Feature", "properties": {"norad_id": 30471, "name": "FENGYUN 1C DEB", "group": "fengyun-1c-debris", "lat": 23.645552002283583, "lon": 80.33556245937294, "alt_km": 901.9993010589142, "timestamp": "2025-12-22T14:45:57.679245+00:00", "meta": {"OBJECT_NAME": "FENGYUN 1C DEB", "OBJECT_ID": "1999-025AGJ", "EPOCH": "2025-12-22T04:35:53.205792", "MEAN_MOTION": 14.13684093, "ECCENTRICITY": 0.0083346, "INCLINATION": 99.0537, "RA_OF_ASC_NODE": 83.9099, "ARG_OF_PERICENTER": 227.1557, "MEAN_ANOMALY": 161.6126, "EPHEMERIS_TYPE": 0, "CLASSIFICATION_TYPE": "U", "NORAD_CAT_ID": 30471, "ELEMENT_SET_NO": 999, "REV_AT_EPOCH": 96576, "BSTAR": 0.0017211309, "MEAN_MOTION_DOT": 3.315e-05, "MEAN_MOTION_DDOT": 0}, "tle": {"line1": "1 30471U 99025AGJ 25356.19158803  .00003315  00000+0  17211-2 0  9991", "line2": "2 30471  99.0537  83.9099 0083346 227.1557 161.6126 14.13684093965766"}}, "geometry": {"type": "Point", "coordinates": [80.33556245937294, 23.645552002283583]}}, {"type": "Feature", "properties": {"norad_id": 30472, "name": "FENGYUN 1C DEB", "group": "fengyun-1c-debris", "lat": 59.89683338025159, "lon": -66.72421625865803, "alt_km": 697.6271234231253, "timestamp": "2025-12-22T14:45:57.679256+00:00", "meta": {"OBJECT_NAME": "FENGYUN 1C DEB", "OBJECT_ID": "1999-025AGK", "EPOCH": "2025-12-22T06:12:46.179648", "MEAN_MOTION": 14.5395155, "ECCENTRICITY": 0.00375447, "INCLINATION": 98.6519, "RA_OF_ASC_NODE": 97.6813, "ARG_OF_PERICENTER": 50.2007, "MEAN_ANOMALY": 3.9797, "EPHEMERIS_TYPE": 0, "CLASSIFICATION_TYPE": "U", "NORAD_CAT_ID": 30472, "ELEMENT_SET_NO": 999, "REV_AT_EPOCH": 98179, "BSTAR": 0.002351684, "MEAN_MOTION_DOT": 9.959e-05, "MEAN_MOTION_DDOT": 0}, "tle": {"line1": "1 30472U 99025AGK 25356.25886782  .00009959  00000+0  23517-2 0  9999", "line2": "2 30472  98.6519  97.6813 0037544  50.2007   3.9797 14.53951550981794"}}, "geometry": {"type": "Point", "coordinates": [-66.72421625865803, 59.89683338025159]}}, {"type": "Feature", "properties": {"norad_id": 30474, "name": "FENGYUN 1C DEB", "group": "fengyun-1c-debris", "lat": 35.203236429263434, "lon": -97.75274904308905, "alt_km": 779.4358780243665, "timestamp": "2025-12-22T14:45:57.679266+00:00", "meta": {"OBJECT_NAME": "FENGYUN 1C DEB", "OBJECT_ID": "1999-025AGM", "EPOCH": "2025-12-21T04:56:56.893920", "MEAN_MOTION": 14.37856671, "ECCENTRICITY": 0.00230135, "INCLINATION": 98.9286, "RA_OF_ASC_NODE": 74.4162, "ARG_OF_PERICENTER": 336.1204, "MEAN_ANOMALY": 78.5978, "EPHEMERIS_TYPE": 0, "CLASSIFICATION_TYPE": "U", "NORAD_CAT_ID": 30474, "ELEMENT_SET_NO": 999, "REV_AT_EPOCH": 97515, "BSTAR": 0.0014360517, "MEAN_MOTION_DOT": 4.299e-05, "MEAN_MOTION_DDOT": 0}, "tle": {"line1": "1 30474U 99025AGM 25355.20621405  .00004299  00000+0  14361-2 0  9993", "line2": "2 30474  98.9286  74.4162 0023013 336.1204  78.5978 14.37856671975153"}}, "geometry": {"type": "Point", "coordinates": [-97.75274904308905, 35.203236429263434]}}, {"type": "Feature", "properties": {"norad_id": 30475, "name": "FENGYUN 1C DEB", "group": "fengyun-1c-debris", "lat": 37.318269418353694, "lon": -135.22837744375803, "alt_km": 852.5962751450834, "timestamp": "2025-12-22T14:45:57.679276+00:00", "meta": {"OBJECT_NAME": "FENGYUN 1C DEB", "OBJECT_ID": "1999-025AGN", "EPOCH": "2025-12-22T02:20:51.616896", "MEAN_MOTION": 14.15707586, "ECCENTRICITY": 0.00429449, "INCLINATION": 98.7871, "RA_OF_ASC_NODE": 37.4901, "ARG_OF_PERICENTER": 263.6395, "MEAN_ANOMALY": 123.2229, "EPHEMERIS_TYPE": 0, "CLASSIFICATION_TYPE": "U", "NORAD_CAT_ID": 30475, "ELEMENT_SET_NO": 999, "REV_AT_EPOCH": 97084, "BSTAR": 0.00073030693, "MEAN_MOTION_DOT": 1.401e-05, "MEAN_MOTION_DDOT": 0}, "tle": {"line1": "1 30475U 99025AGN 25356.09781964  .00001401  00000+0  73031-3 0  9991", "line2": "2 30475  98.7871  37.4901 0042944 263.6395 123.2229 14.15707586970845"}}, "geometry": {"type": "Point", "coordinates": [-135.22837744375803, 37.318269418353694]}}, {"type": "Feature", "properties": {"norad_id": 30476, "name": "FENGYUN 1C DEB", "group": "fengyun-1c-debris", "lat": 80.3197542595281, "lon": -36.28579243765315, "alt_km": 847.471643314364, "timestamp": "2025-12-22T14:45:57.679287+00:00", "meta": {"OBJECT_NAME": "FENGYUN 1C DEB", "OBJECT_ID": "1999-025AGP", "EPOCH": "2025-12-21T01:19:07.603968", "MEAN_MOTION": 14.20955213, "ECCENTRICITY": 0.0045695, "INCLINATION": 99.1242, "RA_OF_ASC_NODE": 32.5189, "ARG_OF_PERICENTER": 275.565, "MEAN_ANOMALY": 113.9677, "EPHEMERIS_TYPE": 0, "CLASSIFICATION_TYPE": "U", "NORAD_CAT_ID": 30476, "ELEMENT_SET_NO": 999, "REV_AT_EPOCH": 96963, "BSTAR": 0.0010133395, "MEAN_MOTION_DOT": 2.171e-05, "MEAN_MOTION_DDOT": 0}, "tle": {"line1": "1 30476U 99025AGP 25355.05494912  .00002171  00000+0  10133-2 0  9999", "line2": "2 30476  99.1242  32.5189 0045695 275.5650 113.9677 14.20955213969635"}}, "geometry": {"type": "Point", "coordinates": [-36.28579243765315, 80.3197542595281]}}, {"type": "Feature", "properties": {"norad_id": 30477, "name": "FENGYUN 1C DEB", "group": "fengyun-1c-debris", "lat": -64.57203964604724, "lon": -121.71143546069881, "alt_km": 851.298241511432, "timestamp": "2025-12-22T14:45:57.679297+00:00", "meta": {"OBJECT_NAME": "FENGYUN 1C DEB", "OBJECT_ID": "1999-025AGQ", "EPOCH": "2025-12-21T12:12:28.645632", "MEAN_MOTION": 13.23853391, "ECCENTRICITY": 0.04347308, "INCLINATION": 99.425, "RA_OF_ASC_NODE": 77.7325, "ARG_OF_PERICENTER": 255.9878, "MEAN_ANOMALY": 119.637, "EPHEMERIS_TYPE": 0, "CLASSIFICATION_TYPE": "U", "NORAD_CAT_ID": 30477, "ELEMENT_SET_NO": 999, "REV_AT_EPOCH": 90835, "BSTAR": 0.0025572317, "MEAN_MOTION_DOT": 1.761e-05, "MEAN_MOTION_DDOT": 0}, "tle": {"line1": "1 30477U 99025AGQ 25355.50866488  .00001761  00000+0  25572-2 0  9998", "line2": "2 30477  99.4250  77.7325 0434730 255.9878 119.6370 13.23853391908358"}}, "geometry": {"type": "Point", "coordinates": [-121.71143546069881, -64.57203964604724]}}, {"type": "Feature", "properties": {"norad_id": 30480, "name": "FENGYUN 1C DEB", "group": "fengyun-1c-debris", "lat": -80.58819098180558, "lon": 71.68215824411892, "alt_km": 897.6400203922558, "timestamp": "2025-12-22T14:45:57.679325+00:00", "meta": {"OBJECT_NAME": "FENGYUN 1C DEB", "OBJECT_ID": "1999-025AGS", "EPOCH": "2025-12-22T06:51:24.786720", "MEAN_MOTION": 14.3361204, "ECCENTRICITY": 0.01667171, "INCLINATION": 98.2232, "RA_OF_ASC_NODE": 10.6306, "ARG_OF_PERICENTER": 117.2893, "MEAN_ANOMALY": 256.7801, "EPHEMERIS_TYPE": 0, "CLASSIFICATION_TYPE": "U", "NORAD_CAT_ID": 30480, "ELEMENT_SET_NO": 999, "REV_AT_EPOCH": 98805, "BSTAR": 0.00019280036, "MEAN_MOTION_DOT": 5.81e-06, "MEAN_MOTION_DDOT": 0}, "tle": {"line1": "1 30480U 99025AGS 25356.28570355  .00000581  00000+0  19280-3 0  9992", "line2": "2 30480  98.2232  10.6306 0166717 117.2893 256.7801 14.33612040988051"}}, "geometry": {"type": "Point", "coordinates": [71.68215824411892, -80.58819098180558]}}]}